COMMENT,ORIGINATOR,NORAD_CAT_ID,OBJECT_NAME,OBJECT_TYPE,CLASSIFICATION_TYPE,INTLDES,EPOCH,EPOCH_MICROSECONDS,MEAN_MOTION,ECCENTRICITY,INCLINATION,RA_OF_ASC_NODE,ARG_OF_PERICENTER,MEAN_ANOMALY,EPHEMERIS_TYPE,ELEMENT_SET_NO,REV_AT_EPOCH,BSTAR,MEAN_MOTION_DOT,MEAN_MOTION_DDOT,FILE,TLE_LINE0,TLE_LINE1,TLE_LINE2,OBJECT_ID,OBJECT_NUMBER,SEMIMAJOR_AXIS,PERIOD,APOGEE,PERIGEE,DECAYED
"GENERATED VIA SPACETRACK.ORG API","18 SPCS","55091","SPACEBEE-164","PAYLOAD","U","23001CL","2023-02-07 02:20:01","787424","15.14538985","0.0017692","97.4977","99.6998","95.3025","265.0226","0","999","537","0.00090973","0.0001679","0","3777208","0 SPACEBEE-164","1 55091U 23001CL  23038.09724291  .00016790  00000-0  90973-3 0  9990","2 55091  97.4977  99.6998 0017692  95.3025 265.0226 15.14538985  5371","2023-001CL","55091","6900.516","95.078","534.589","510.172","0"
"GENERATED VIA SPACETRACK.ORG API","18 SPCS","55091","SPACEBEE-164","PAYLOAD","U","23001CL","2023-02-07 15:01:08","9760","15.14562525","0.001773","97.4972","100.2203","93.595","266.731","0","999","545","0.0010615","0.00019623","0","3777976","0 SPACEBEE-164","1 55091U 23001CL  23038.62578715  .00019623  00000-0  10615-2 0  9999","2 55091  97.4972 100.2203 0017730  93.5950 266.7310 15.14562525  5452","2023-001CL","55091","6900.444","95.077","534.544","510.075","0"
"GENERATED VIA SPACETRACK.ORG API","18 SPCS","55091","SPACEBEE-164","PAYLOAD","U","23001CL","2023-02-08 03:42:13","537440","15.14584845","0.0017708","97.497","100.7411","91.9318","268.3942","0","999","553","0.0010648","0.00019697","0","3778591","0 SPACEBEE-164","1 55091U 23001CL  23039.15432335  .00019697  00000-0  10648-2 0  9992","2 55091  97.4970 100.7411 0017708  91.9318 268.3942 15.14584845  5538","2023-001CL","55091","6900.376","95.076","534.460","510.022","0"
"GENERATED VIA SPACETRACK.ORG API","18 SPCS","55091","SPACEBEE-164","PAYLOAD","U","23001CL","2023-02-08 03:42:13","537440","15.14584845","0.0017708","97.497","100.7411","91.9318","268.3942","0","999","553","0.0010648","0.00019697","0","3780324","0 SPACEBEE-164","1 55091U 23001CL  23039.15432335  .00019697  00000-0  10648-2 0  9992","2 55091  97.4970 100.7411 0017708  91.9318 268.3942 15.14584845  5538","2023-001CL","55091","6900.376","95.076","534.460","510.022","0"
"GENERATED VIA SPACETRACK.ORG API","18 SPCS","55091","SPACEBEE-164","PAYLOAD","U","23001CL","2023-02-08 16:23:18","296160","15.14611882","0.0017713","97.4969","101.2621","90.29","270.0362","0","999","561","0.0012114","0.00022443","0","3780893","0 SPACEBEE-164","1 55091U 23001CL  23039.68285065  .00022443  00000-0  12114-2 0  9999","2 55091  97.4969 101.2621 0017713  90.2900 270.0362 15.14611882  5617","2023-001CL","55091","6900.294","95.074","534.382","509.937","0"
"GENERATED VIA SPACETRACK.ORG API","18 SPCS","55091","SPACEBEE-164","PAYLOAD","U","23001CL","2023-02-09 03:29:14","380512","15.14633457","0.0017648","97.4966","101.718","88.8424","271.483","0","999","568","0.0012518","0.0002321","0","3782055","0 SPACEBEE-164","1 55091U 23001CL  23040.14530533  .00023210  00000-0  12518-2 0  9996","2 55091  97.4966 101.7180 0017648  88.8424 271.4830 15.14633457  5684","2023-001CL","55091","6900.229","95.073","534.271","509.916","0"
"GENERATED VIA SPACETRACK.ORG API","18 SPCS","55091","SPACEBEE-164","PAYLOAD","U","23001CL","2023-02-09 03:29:14","380512","15.14633457","0.0017648","97.4966","101.718","88.8424","271.483","0","999","568","0.0012518","0.0002321","0","3782313","0 SPACEBEE-164","1 55091U 23001CL  23040.14530533  .00023210  00000-0  12518-2 0  9996","2 55091  97.4966 101.7180 0017648  88.8424 271.4830 15.14633457  5684","2023-001CL","55091","6900.229","95.073","534.271","509.916","0"
"GENERATED VIA SPACETRACK.ORG API","18 SPCS","55091","SPACEBEE-164","PAYLOAD","U","23001CL","2023-02-09 17:45:25","606080","15.14662178","0.0017545","97.4963","102.3037","86.9816","273.3423","0","999","577","0.001272","0.00023605","0","3783241","0 SPACEBEE-164","1 55091U 23001CL  23040.73987970  .00023605  00000-0  12720-2 0  9995","2 55091  97.4963 102.3037 0017545  86.9816 273.3423 15.14662178  5770","2023-001CL","55091","6900.141","95.071","534.113","509.900","0"
"GENERATED VIA SPACETRACK.ORG API","18 SPCS","55091","SPACEBEE-164","PAYLOAD","U","23001CL","2023-02-10 03:16:12","603072","15.14681573","0.0017542","97.4962","102.6945","85.5908","274.7327","0","999","583","0.0013862","0.00025752","0","3784184","0 SPACEBEE-164","1 55091U 23001CL  23041.13625698  .00025752  00000-0  13862-2 0  9999","2 55091  97.4962 102.6945 0017542  85.5908 274.7327 15.14681573  5839","2023-001CL","55091","6900.082","95.069","534.052","509.843","0"
"GENERATED VIA SPACETRACK.ORG API","18 SPCS","55091","SPACEBEE-164","PAYLOAD","U","23001CL","2023-02-10 09:36:43","611264","15.1469803","0.0017523","97.4959","102.9548","84.8808","275.4424","0","999","587","0.0015694","0.00029191","0","3784774","0 SPACEBEE-164","1 55091U 23001CL  23041.40050476  .00029191  00000-0  15694-2 0  9991","2 55091  97.4959 102.9548 0017523  84.8808 275.4424 15.14698030  5873","2023-001CL","55091","6900.032","95.068","533.988","509.807","0"
"GENERATED VIA SPACETRACK.ORG API","18 SPCS","55091","SPACEBEE-164","PAYLOAD","U","23001CL","2023-02-10 15:57:14","465664","15.14709005","0.0017455","97.4964","103.2151","83.9399","276.3821","0","999","591","0.0013561","0.00025208","0","3785071","0 SPACEBEE-164","1 55091U 23001CL  23041.66475076  .00025208  00000-0  13561-2 0  9992","2 55091  97.4964 103.2151 0017455  83.9399 276.3821 15.14709005  5913","2023-001CL","55091","6899.999","95.068","533.908","509.820","0"
"GENERATED VIA SPACETRACK.ORG API","18 SPCS","55091","SPACEBEE-164","PAYLOAD","U","23001CL","2023-02-11 09:23:38","186880","15.14749291","0.0017385","97.4962","103.9314","81.5629","278.7573","0","999","602","0.0015422","0.00028721","0","3786144","0 SPACEBEE-164","1 55091U 23001CL  23042.39141420  .00028721  00000-0  15422-2 0  9997","2 55091  97.4962 103.9314 0017385  81.5629 278.7573 15.14749291  6025","2023-001CL","55091","6899.877","95.065","533.737","509.746","0"
"GENERATED VIA SPACETRACK.ORG API","18 SPCS","55091","SPACEBEE-164","PAYLOAD","U","23001CL","2023-02-11 09:23:38","186880","15.14749291","0.0017385","97.4962","103.9314","81.5629","278.7573","0","999","602","0.0015422","0.00028721","0","3786558","0 SPACEBEE-164","1 55091U 23001CL  23042.39141420  .00028721  00000-0  15422-2 0  9997","2 55091  97.4962 103.9314 0017385  81.5629 278.7573 15.14749291  6025","2023-001CL","55091","6899.877","95.065","533.737","509.746","0"
"GENERATED VIA SPACETRACK.ORG API","18 SPCS","55091","SPACEBEE-164","PAYLOAD","U","23001CL","2023-02-12 02:50:00","284640","15.14786833","0.0017384","97.4963","104.6478","79.1739","281.1449","0","999","613","0.0013859","0.00025821","0","3787692","0 SPACEBEE-164","1 55091U 23001CL  23043.11805885  .00025821  00000-0  13859-2 0  9990","2 55091  97.4963 104.6478 0017384  79.1739 281.1449 15.14786833  6134","2023-001CL","55091","6899.763","95.063","533.622","509.633","0"
"GENERATED VIA SPACETRACK.ORG API","18 SPCS","55091","SPACEBEE-164","PAYLOAD","U","23001CL","2023-02-12 21:51:28","25856","15.14828181","0.0017331","97.4967","105.4292","76.5657","283.7505","0","999","625","0.0014262","0.00026607","0","3788109","0 SPACEBEE-164","1 55091U 23001CL  23043.91074104  .00026607  00000-0  14262-2 0  9992","2 55091  97.4967 105.4292 0017331  76.5657 283.7505 15.14828181  6250","2023-001CL","55091","6899.637","95.060","533.460","509.544","0"
"GENERATED VIA SPACETRACK.ORG API","18 SPCS","55091","SPACEBEE-164","PAYLOAD","U","23001CL","2023-02-13 10:32:25","502784","15.14854094","0.0017319","97.4964","105.95","74.7136","285.6009","0","999","633","0.0013106","0.00024456","0","3789366","0 SPACEBEE-164","1 55091U 23001CL  23044.43918406  .00024456  00000-0  13106-2 0  9998","2 55091  97.4964 105.9500 0017319  74.7136 285.6009 15.14854094  6333","2023-001CL","55091","6899.559","95.059","533.373","509.474","0"
"GENERATED VIA SPACETRACK.ORG API","18 SPCS","55091","SPACEBEE-164","PAYLOAD","U","23001CL","2023-02-14 02:23:36","363552","15.14884657","0.0017305","97.4963","106.6012","72.5961","287.7162","0","999","643","0.001326","0.00024766","0","3790593","0 SPACEBEE-164","1 55091U 23001CL  23045.09972643  .00024766  00000-0  13260-2 0  9999","2 55091  97.4963 106.6012 0017305  72.5961 287.7162 15.14884657  6437","2023-001CL","55091","6899.466","95.057","533.270","509.391","0"
"GENERATED VIA SPACETRACK.ORG API","18 SPCS","55091","SPACEBEE-164","PAYLOAD","U","23001CL","2023-02-14 10:19:11","356320","15.14899569","0.0017387","97.4963","106.9266","71.8037","288.5087","0","999","648","0.0013135","0.00024543","0","3791349","0 SPACEBEE-164","1 55091U 23001CL  23045.42999255  .00024543  00000-0  13135-2 0  9998","2 55091  97.4963 106.9266 0017387  71.8037 288.5087 15.14899569  6485","2023-001CL","55091","6899.420","95.056","533.281","509.289","0"
"GENERATED VIA SPACETRACK.ORG API","18 SPCS","55091","SPACEBEE-164","PAYLOAD","U","23001CL","2023-02-15 03:45:27","386208","15.14926574","0.0016248","97.4973","107.6433","66.815","293.4792","0","999","659","0.0011593","0.00021651","0","3792839","0 SPACEBEE-164","1 55091U 23001CL  23046.15656697  .00021651  00000-0  11593-2 0  9992","2 55091  97.4973 107.6433 0016248  66.8150 293.4792 15.14926574  6592","2023-001CL","55091","6899.338","95.054","532.414","509.993","0"
"GENERATED VIA SPACETRACK.ORG API","18 SPCS","55091","SPACEBEE-164","PAYLOAD","U","23001CL","2023-02-15 10:05:54","715488","15.14938245","0.0015336","97.4993","107.9043","63.2053","297.0746","0","999","663","0.0011922","0.00022269","0","3793706","0 SPACEBEE-164","1 55091U 23001CL  23046.42077217  .00022269  00000-0  11922-2 0  9999","2 55091  97.4993 107.9043 0015336  63.2053 297.0746 15.14938245  6636","2023-001CL","55091","6899.303","95.053","531.749","510.587","0"
